OBJECT_NAME,OBJECT_ID,EPOCH,MEAN_MOTION,ECCENTRICITY,INCLINATION,RA_OF_ASC_NODE,ARG_OF_PERICENTER,MEAN_ANOMALY,EPHEMERIS_TYPE,CLASSIFICATION_TYPE,NORAD_CAT_ID,ELEMENT_SET_NO,REV_AT_EPOCH,BSTAR,MEAN_MOTION_DOT,MEAN_MOTION_DDOT
QB50P1,2014-033R,2026-05-17T18:17:31.729056,15.17749645,.0007858,98.0972,146.7868,341.5889,18.5058,0,U,40025,999,64841,.29289E-3,.5841E-4,0
DTUSAT-2,2014-033W,2026-05-17T17:16:28.873632,15.14587078,.0007385,98.0864,133.5244,353.0011,7.1115,0,U,40030,999,64807,.26698E-3,.4856E-4,0
QB50P2,2014-033Y,2026-05-17T18:47:27.136608,15.14735983,.0005672,98.0752,132.7822,281.8283,78.2311,0,U,40032,999,64806,.24954E-3,.4552E-4,0
PERSEUS-M1,2014-033AF,2026-05-17T09:26:51.823104,14.95520624,.00127604,97.9634,81.0260,45.6950,314.5314,0,U,40039,999,64603,.13739677E-3,.1464E-4,0
POLYITAN-1,2014-033AJ,2026-05-17T11:57:03.655872,15.32122709,.0005589,98.0957,160.8821,245.7989,114.2667,0,U,40042,999,64889,.3581046E-3,.11026E-3,0
TIGRISAT,2014-033AK,2026-05-17T09:24:04.847328,14.85019018,.0049653,97.7796,288.1192,174.1011,186.0799,0,U,40043,999,64105,.16206185E-3,.1358E-4,0
CANX-4,2014-034C,2026-05-17T14:50:29.643360,14.81202798,.0014055,98.3161,11.8044,107.5131,252.7617,0,U,40055,999,64000,.77986E-4,.55E-5,0
CANX-5,2014-034D,2026-05-17T11:34:11.658432,14.81219706,.00140545,98.3163,11.7047,108.0971,252.1773,0,U,40056,999,63079,.78638443E-4,.556E-5,0
GONETS-M 10,2014-036C,2026-05-17T19:19:03.751392,12.42944648,.0021372,82.5099,326.5521,206.3950,153.6042,0,U,40063,999,53847,-.16156E-3,-.13E-6,0
METEOR-M 2,2014-037A,2026-05-17T21:04:00.091776,14.21451811,.0006768,98.5095,114.6927,117.9633,242.2231,0,U,40069,999,61501,-.80842E-4,-.219E-5,0
DX1,2014-037C,2026-05-17T20:55:24.928320,14.89880820,.0007776,98.3853,97.7404,22.2311,337.9240,0,U,40071,999,64159,.62462E-4,.538E-5,0
UKUBE-1,2014-037F,2026-05-17T19:38:01.650624,15.13021741,.0000323,98.4238,137.9137,131.1304,228.9952,0,U,40074,999,64396,.35731E-3,.6235E-4,0
GAOFEN-2,2014-049A,2026-05-17T20:06:54.664416,14.80863200,.0006871,98.0127,202.0718,343.5234,16.5754,0,U,40118,999,63474,.67791E-5,-.1E-7,0
BRITE-PL2 (HEWELIUSZ),2014-049B,2026-05-17T18:37:39.114624,14.94466895,.001354,97.9064,249.5503,205.2842,154.7717,0,U,40119,999,63690,.11826E-3,.1218E-4,0
CBERS 4,2014-079A,2026-05-17T20:32:53.439648,14.35499332,.000209,98.3554,195.6357,98.0956,262.0467,0,U,40336,999,59960,-.93701E-5,-.69E-6,0
SMAP,2015-003A,2026-05-17T20:34:42.466080,14.63409784,.000125,98.1284,145.3815,71.1288,289.0049,0,U,40376,999,60318,.5707E-4,.248E-5,0
GONETS-M 11,2015-020A,2026-05-17T19:43:19.460064,12.42875735,.0017401,82.4890,49.9103,68.4582,291.8350,0,U,40552,999,50496,.12809E-3,.28E-6,0
GONETS-M 12,2015-020B,2026-05-17T19:05:38.951808,12.42890309,.0016368,82.4923,51.0425,54.3183,305.9417,0,U,40553,999,50495,.67902E-3,.104E-5,0
GONETS-M 13,2015-020C,2026-05-17T20:22:38.440992,12.42868703,.0014858,82.4886,49.6331,40.2074,320.0102,0,U,40554,999,50493,-.2204E-3,-.21E-6,0
DMC3-FM1,2015-032A,2026-05-17T21:33:36.576000,14.85698832,.0006219,97.6503,4.2560,139.9116,220.2559,0,U,40715,999,58541,-.64343E-5,-.107E-5,0
DMC3-FM2,2015-032B,2026-05-17T20:28:32.032992,14.85705487,.0006646,97.6557,5.7655,146.1887,213.9753,0,U,40716,999,58540,.62895E-4,.494E-5,0
DMC3-FM3,2015-032C,2026-05-17T21:01:49.512864,14.85698209,.0005866,97.6610,7.5214,143.5113,216.6504,0,U,40717,999,58541,.10057E-3,.821E-5,0
CARBONITE 1 (CBNT-1),2015-032D,2026-05-17T19:56:35.285280,14.83484050,.0015474,97.6494,317.1735,38.9973,321.2354,0,U,40718,999,58484,.74037E-4,.559E-5,0
LILACSAT-2,2015-049K,2026-05-17T19:38:32.167104,15.50373282,.000707,97.4677,173.5250,21.3321,338.8223,0,U,40908,999,59104,.21149E-3,.11924E-3,0
COSMOS 2507 (RODNIK-S 13),2015-050A,2026-05-17T21:15:34.928352,12.42926222,.0011133,82.4895,98.5344,58.1142,302.1019,0,U,40920,999,48309,.42917E-3,.69E-6,0
COSMOS 2508 (RODNIK-S 14),2015-050B,2026-05-17T20:10:21.955296,12.42913505,.0015508,82.4849,97.0792,88.4901,271.7954,0,U,40921,999,48307,.67506E-3,.104E-5,0
COSMOS 2509 (RODNIK-S 15),2015-050C,2026-05-17T20:38:34.060416,12.42883108,.0015708,82.4857,97.1661,104.4371,255.8453,0,U,40922,999,48311,.44798E-3,.72E-6,0
