{"n":40025,"c":9,"l1":"1 40025U 2014-033 26137.76217279  0.00005841  00000-0  292890-4 0  9997","l2":"2 40025  98.0972 146.7868 0007858 341.5889  18.5058 15.17749645648413","nm":"QB50P1"},{"n":40030,"c":9,"l1":"1 40030U 2014-033 26137.71977862  0.00004856  00000-0  266980-4 0  9995","l2":"2 40030  98.0864 133.5244 0007385 353.0011   7.1115 15.14587078648078","nm":"DTUSAT-2"},{"n":40032,"c":9,"l1":"1 40032U 2014-033 26137.78295296  0.00004552  00000-0  249540-4 0  9994","l2":"2 40032  98.0752 132.7822 0005672 281.8283  78.2311 15.14735983648061","nm":"QB50P2"},{"n":40039,"c":9,"l1":"1 40039U 2014-033 26137.39365536  0.00001464  00000-0  137397-4 0  9998","l2":"2 40039  97.9634  81.0260 0012760  45.6950 314.5314 14.95520624646036","nm":"PERSEUS-M1"},{"n":40042,"c":9,"l1":"1 40042U 2014-033 26137.49795897  0.00011026  00000-0  358105-4 0  9997","l2":"2 40042  98.0957 160.8821 0005589 245.7989 114.2667 15.32122709648891","nm":"POLYITAN-1"},{"n":40043,"c":9,"l1":"1 40043U 2014-033 26137.39172277  0.00001358  00000-0  162062-4 0  9990","l2":"2 40043  97.7796 288.1192 0049653 174.1011 186.0799 14.85019018641054","nm":"TIGRISAT"},{"n":40055,"c":9,"l1":"1 40055U 2014-034 26137.61839865  0.00000550  00000-0  779860-5 0  9996","l2":"2 40055  98.3161  11.8044 0014055 107.5131 252.7617 14.81202798640007","nm":"CANX-4"},{"n":40056,"c":9,"l1":"1 40056U 2014-034 26137.48207938  0.00000556  00000-0  786384-5 0  9997","l2":"2 40056  98.3163  11.7047 0014054 108.0971 252.1773 14.81219706630798","nm":"CANX-5"},{"n":40063,"c":9,"l1":"1 40063U 2014-036 26137.80490453 -0.00000013  00000-0 -161560-4 0  9991","l2":"2 40063  82.5099 326.5521 0021372 206.3950 153.6042 12.42944648538474","nm":"GONETS-M 10"},{"n":40069,"c":3,"l1":"1 40069U 2014-037 26137.87777883 -0.00000219  00000-0 -808420-5 0  9992","l2":"2 40069  98.5095 114.6927 0006768 117.9633 242.2231 14.21451811615011","nm":"METEOR-M 2"},{"n":40071,"c":9,"l1":"1 40071U 2014-037 26137.87181630  0.00000538  00000-0  624620-5 0  9994","l2":"2 40071  98.3853  97.7404 0007776  22.2311 337.9240 14.89880820641590","nm":"DX1"},{"n":40074,"c":9,"l1":"1 40074U 2014-037 26137.81807465  0.00006235  00000-0  357310-4 0  9990","l2":"2 40074  98.4238 137.9137 0000323 131.1304 228.9952 15.13021741643963","nm":"UKUBE-1"},{"n":40118,"c":9,"l1":"1 40118U 2014-049 26137.83813269 -0.00000001  00000-0  677910-6 0  9992","l2":"2 40118  98.0127 202.0718 0006871 343.5234  16.5754 14.80863200634743","nm":"GAOFEN-2"},{"n":40119,"c":6,"l1":"1 40119U 2014-049 26137.77614715  0.00001218  00000-0  118260-4 0  9997","l2":"2 40119  97.9064 249.5503 0013540 205.2842 154.7717 14.94466895636908","nm":"BRITE-PL2 (HEWELIUSZ)"},{"n":40336,"c":9,"l1":"1 40336U 2014-079 26137.85617406 -0.00000069  00000-0 -937010-6 0  9999","l2":"2 40336  98.3554 195.6357 0002090  98.0956 262.0467 14.35499332599605","nm":"CBERS 4"},{"n":40376,"c":9,"l1":"1 40376U 2015-003 26137.85743595  0.00000248  00000-0  570700-5 0  9995","l2":"2 40376  98.1284 145.3815 0001250  71.1288 289.0049 14.63409784603182","nm":"SMAP"},{"n":40552,"c":9,"l1":"1 40552U 2015-020 26137.82175301  0.00000028  00000-0  128090-4 0  9997","l2":"2 40552  82.4890  49.9103 0017401  68.4582 291.8350 12.42875735504967","nm":"GONETS-M 11"},{"n":40553,"c":9,"l1":"1 40553U 2015-020 26137.79558971  0.00000104  00000-0  679020-4 0  9991","l2":"2 40553  82.4923  51.0425 0016368  54.3183 305.9417 12.42890309504952","nm":"GONETS-M 12"},{"n":40554,"c":9,"l1":"1 40554U 2015-020 26137.84905602 -0.00000021  00000-0 -220400-4 0  9999","l2":"2 40554  82.4886  49.6331 0014858  40.2074 320.0102 12.42868703504935","nm":"GONETS-M 13"},{"n":40715,"c":9,"l1":"1 40715U 2015-032 26137.89834000 -0.00000107  00000-0 -643430-6 0  9998","l2":"2 40715  97.6503   4.2560 0006219 139.9116 220.2559 14.85698832585416","nm":"DMC3-FM1"},{"n":40716,"c":9,"l1":"1 40716U 2015-032 26137.85314852  0.00000494  00000-0  628950-5 0  9999","l2":"2 40716  97.6557   5.7655 0006646 146.1887 213.9753 14.85705487585405","nm":"DMC3-FM2"},{"n":40717,"c":9,"l1":"1 40717U 2015-032 26137.87626750  0.00000821  00000-0  100570-4 0  9991","l2":"2 40717  97.6610   7.5214 0005866 143.5113 216.6504 14.85698209585411","nm":"DMC3-FM3"},{"n":40718,"c":9,"l1":"1 40718U 2015-032 26137.83096395  0.00000559  00000-0  740370-5 0  9991","l2":"2 40718  97.6494 317.1735 0015474  38.9973 321.2354 14.83484050584844","nm":"CARBONITE 1 (CBNT-1)"},{"n":40908,"c":9,"l1":"1 40908U 2015-049 26137.81842786  0.00011924  00000-0  211490-4 0  9994","l2":"2 40908  97.4677 173.5250 0007070  21.3321 338.8223 15.50373282591046","nm":"LILACSAT-2"},{"n":40920,"c":9,"l1":"1 40920U 2015-050 26137.88582093  0.00000069  00000-0  429170-4 0  9993","l2":"2 40920  82.4895  98.5344 0011133  58.1142 302.1019 12.42926222483098","nm":"COSMOS 2507 (RODNIK-S 13)"},{"n":40921,"c":9,"l1":"1 40921U 2015-050 26137.84053189  0.00000104  00000-0  675060-4 0  9990","l2":"2 40921  82.4849  97.0792 0015508  88.4901 271.7954 12.42913505483075","nm":"COSMOS 2508 (RODNIK-S 14)"},{"n":40922,"c":9,"l1":"1 40922U 2015-050 26137.86011644  0.00000072  00000-0  447980-4 0  9995","l2":"2 40922  82.4857  97.1661 0015708 104.4371 255.8453 12.42883108483110","nm":"COSMOS 2509 (RODNIK-S 15)"}